{"type": "FeatureCollection", "features": [ {"type": "Feature", "properties": {"norad_id": 37216, "name": "COSMO-SKYMED 4", "group": "resource", "lat": -52.35233167704904, "lon": -12.226108546716276, "alt_km": 630.3818994482426, "timestamp": "2025-12-22T22:44:20.607534+00:00", "meta": {"OBJECT_NAME": "COSMO-SKYMED 4", "OBJECT_ID": "2010-060A", "EPOCH": "2025-12-22T13:35:23.404704", "MEAN_MOTION": 14.82155052, "ECCENTRICITY": 0.0001403, "INCLINATION": 97.88, "RA_OF_ASC_NODE": 177.7413, "ARG_OF_PERICENTER": 81.8876, "MEAN_ANOMALY": 278.2496, "EPHEMERIS_TYPE": 0, "CLASSIFICATION_TYPE": "U", "NORAD_CAT_ID": 37216, "ELEMENT_SET_NO": 999, "REV_AT_EPOCH": 81840, "BSTAR": 2.0530383e-05, "MEAN_MOTION_DOT": 1.11e-06, "MEAN_MOTION_DDOT": 0}, "tle": {"line1": "1 37216U 10060A   25356.56624311  .00000111  00000+0  20530-4 0  9991", "line2": "2 37216  97.8800 177.7413 0001403  81.8876 278.2496 14.82155052818401"}}, "geometry": {"type": "Point", "coordinates": [-12.226108546716276, -52.35233167704904]}}, {"type": "Feature", "properties": {"norad_id": 37387, "name": "RESOURCESAT-2", "group": "resource", "lat": 42.673138293157656, "lon": -111.34978772953392, "alt_km": 818.6451193236917, "timestamp": "2025-12-22T22:44:20.607545+00:00", "meta": {"OBJECT_NAME": "RESOURCESAT-2", "OBJECT_ID": "2011-015A", "EPOCH": "2025-12-22T11:57:49.724352", "MEAN_MOTION": 14.21600948, "ECCENTRICITY": 0.00059648, "INCLINATION": 98.7863, "RA_OF_ASC_NODE": 60.006, "ARG_OF_PERICENTER": 16.0942, "MEAN_ANOMALY": 344.0424, "EPHEMERIS_TYPE": 0, "CLASSIFICATION_TYPE": "U", "NORAD_CAT_ID": 37387, "ELEMENT_SET_NO": 999, "REV_AT_EPOCH": 76107, "BSTAR": 8.1849992e-05, "MEAN_MOTION_DOT": 1.35e-06, "MEAN_MOTION_DDOT": 0}, "tle": {"line1": "1 37387U 11015A   25356.49849218  .00000135  00000+0  81850-4 0  9996", "line2": "2 37387  98.7863  60.0060 0005964  16.0942 344.0424 14.21600948761076"}}, "geometry": {"type": "Point", "coordinates": [-111.34978772953392, 42.673138293157656]}}, {"type": "Feature", "properties": {"norad_id": 37781, "name": "HAIYANG-2A", "group": "resource", "lat": 54.284919664014794, "lon": -15.503715676797821, "alt_km": 961.6602439256894, "timestamp": "2025-12-22T22:44:20.607575+00:00", "meta": {"OBJECT_NAME": "HAIYANG-2A", "OBJECT_ID": "2011-043A", "EPOCH": "2025-12-22T13:45:50.051808", "MEAN_MOTION": 13.78835446, "ECCENTRICITY": 0.00016124, "INCLINATION": 99.3371, "RA_OF_ASC_NODE": 357.3563, "ARG_OF_PERICENTER": 70.096, "MEAN_ANOMALY": 290.0365, "EPHEMERIS_TYPE": 0, "CLASSIFICATION_TYPE": "U", "NORAD_CAT_ID": 37781, "ELEMENT_SET_NO": 999, "REV_AT_EPOCH": 72234, "BSTAR": -0.00012168487, "MEAN_MOTION_DOT": -1.68e-06, "MEAN_MOTION_DDOT": 0}, "tle": {"line1": "1 37781U 11043A   25356.57349597 -.00000168  00000+0 -12168-3 0  9992", "line2": "2 37781  99.3371 357.3563 0001612  70.0960 290.0365 13.78835446722346"}}, "geometry": {"type": "Point", "coordinates": [-15.503715676797821, 54.284919664014794]}}, {"type": "Feature", "properties": {"norad_id": 37791, "name": "RASAT", "group": "resource", "lat": -20.19021442960174, "lon": -96.93487635822557, "alt_km": 687.5946471833695, "timestamp": "2025-12-22T22:44:20.607587+00:00", "meta": {"OBJECT_NAME": "RASAT", "OBJECT_ID": "2011-044D", "EPOCH": "2025-12-22T20:43:04.632384", "MEAN_MOTION": 14.67923177, "ECCENTRICITY": 0.0021456, "INCLINATION": 98.0649, "RA_OF_ASC_NODE": 85.971, "ARG_OF_PERICENTER": 34.4191, "MEAN_ANOMALY": 81.0491, "EPHEMERIS_TYPE": 0, "CLASSIFICATION_TYPE": "U", "NORAD_CAT_ID": 37791, "ELEMENT_SET_NO": 999, "REV_AT_EPOCH": 76731, "BSTAR": 0.00014379, "MEAN_MOTION_DOT": 7.76e-06, "MEAN_MOTION_DDOT": 0}, "tle": {"line1": "1 37791U 11044D   25356.86324806  .00000776  00000+0  14379-3 0  9991", "line2": "2 37791  98.0649  85.9710 0021456  34.4191  81.0491 14.67923177767319"}}, "geometry": {"type": "Point", "coordinates": [-96.93487635822557, -20.19021442960174]}}, {"type": "Feature", "properties": {"norad_id": 37841, "name": "SRMSAT", "group": "resource", "lat": -11.802325074863003, "lon": -98.70427371545716, "alt_km": 860.8705161026801, "timestamp": "2025-12-22T22:44:20.607598+00:00", "meta": {"OBJECT_NAME": "SRMSAT", "OBJECT_ID": "2011-058D", "EPOCH": "2025-12-22T10:24:14.876064", "MEAN_MOTION": 14.11514562, "ECCENTRICITY": 0.00119765, "INCLINATION": 19.9728, "RA_OF_ASC_NODE": 49.2828, "ARG_OF_PERICENTER": 59.704, "MEAN_ANOMALY": 59.7163, "EPHEMERIS_TYPE": 0, "CLASSIFICATION_TYPE": "U", "NORAD_CAT_ID": 37841, "ELEMENT_SET_NO": 999, "REV_AT_EPOCH": 73281, "BSTAR": 7.8870936e-05, "MEAN_MOTION_DOT": 4.1e-06, "MEAN_MOTION_DDOT": 0}, "tle": {"line1": "1 37841U 11058D   25356.43350551  .00000410  00000+0  78871-4 0  9994", "line2": "2 37841  19.9728  49.2828 0011976  59.7040  59.7163 14.11514562732815"}}, "geometry": {"type": "Point", "coordinates": [-98.70427371545716, -11.802325074863003]}}, {"type": "Feature", "properties": {"norad_id": 38012, "name": "PLEIADES 1A", "group": "resource", "lat": 12.073678637881649, "lon": 67.79531033746517, "alt_km": 698.6808779403682, "timestamp": "2025-12-22T22:44:20.607609+00:00", "meta": {"OBJECT_NAME": "PLEIADES 1A", "OBJECT_ID": "2011-076F", "EPOCH": "2025-12-22T14:57:07.313184", "MEAN_MOTION": 14.58570554, "ECCENTRICITY": 0.00011316, "INCLINATION": 98.1816, "RA_OF_ASC_NODE": 69.2394, "ARG_OF_PERICENTER": 73.8467, "MEAN_ANOMALY": 35.7997, "EPHEMERIS_TYPE": 0, "CLASSIFICATION_TYPE": "U", "NORAD_CAT_ID": 38012, "ELEMENT_SET_NO": 999, "REV_AT_EPOCH": 74625, "BSTAR": 0.00014002161, "MEAN_MOTION_DOT": 6.06e-06, "MEAN_MOTION_DDOT": 0}, "tle": {"line1": "1 38012U 11076F   25356.62300131  .00000606  00000+0  14002-3 0  9997", "line2": "2 38012  98.1816  69.2394 0001131  73.8467  35.7997 14.58570554746251"}}, "geometry": {"type": "Point", "coordinates": [67.79531033746517, 12.073678637881649]}}, {"type": "Feature", "properties": {"norad_id": 38038, "name": "ZIYUAN 1-02C (ZY 1-02C)", "group": "resource", "lat": -64.99086812281003, "lon": -135.76816840773716, "alt_km": 776.0228124951709, "timestamp": "2025-12-22T22:44:20.607620+00:00", "meta": {"OBJECT_NAME": "ZIYUAN 1-02C (ZY 1-02C)", "OBJECT_ID": "2011-079A", "EPOCH": "2025-12-22T15:40:07.315680", "MEAN_MOTION": 14.3802273, "ECCENTRICITY": 0.00074997, "INCLINATION": 98.4324, "RA_OF_ASC_NODE": 62.4839, "ARG_OF_PERICENTER": 112.2654, "MEAN_ANOMALY": 49.7725, "EPHEMERIS_TYPE": 0, "CLASSIFICATION_TYPE": "U", "NORAD_CAT_ID": 38038, "ELEMENT_SET_NO": 999, "REV_AT_EPOCH": 73383, "BSTAR": 0.00019463077, "MEAN_MOTION_DOT": 5.46e-06, "MEAN_MOTION_DDOT": 0}, "tle": {"line1": "1 38038U 11079A   25356.65286245  .00000546  00000+0  19463-3 0  9999", "line2": "2 38038  98.4324  62.4839 0007499 112.2654  49.7725 14.38022730733834"}}, "geometry": {"type": "Point", "coordinates": [-135.76816840773716, -64.99086812281003]}}, {"type": "Feature", "properties": {"norad_id": 38338, "name": "ARIRANG-3 (KOMPSAT-3)", "group": "resource", "lat": 25.24857688507151, "lon": -52.349443158220026, "alt_km": 686.4160295218326, "timestamp": "2025-12-22T22:44:20.607631+00:00", "meta": {"OBJECT_NAME": "ARIRANG-3 (KOMPSAT-3)", "OBJECT_ID": "2012-025B", "EPOCH": "2025-12-22T14:24:29.846016", "MEAN_MOTION": 14.61724806, "ECCENTRICITY": 0.00047924, "INCLINATION": 98.3337, "RA_OF_ASC_NODE": 311.2647, "ARG_OF_PERICENTER": 303.8058, "MEAN_ANOMALY": 56.2686, "EPHEMERIS_TYPE": 0, "CLASSIFICATION_TYPE": "U", "NORAD_CAT_ID": 38338, "ELEMENT_SET_NO": 999, "REV_AT_EPOCH": 72554, "BSTAR": 0.00011024611, "MEAN_MOTION_DOT": 5.01e-06, "MEAN_MOTION_DDOT": 0}, "tle": {"line1": "1 38338U 12025B   25356.60034544  .00000501  00000+0  11025-3 0  9999", "line2": "2 38338  98.3337 311.2647 0004792 303.8058  56.2686 14.61724806725548"}}, "geometry": {"type": "Point", "coordinates": [-52.349443158220026, 25.24857688507151]}}, {"type": "Feature", "properties": {"norad_id": 38709, "name": "EXACTVIEW-1 (ADS-1B)", "group": "resource", "lat": 65.2153466797519, "lon": -54.460136042596154, "alt_km": 808.696299230819, "timestamp": "2025-12-22T22:44:20.607641+00:00", "meta": {"OBJECT_NAME": "EXACTVIEW-1 (ADS-1B)", "OBJECT_ID": "2012-039C", "EPOCH": "2025-12-22T05:21:26.060256", "MEAN_MOTION": 14.24911668, "ECCENTRICITY": 0.0010213, "INCLINATION": 98.9637, "RA_OF_ASC_NODE": 104.8123, "ARG_OF_PERICENTER": 325.9795, "MEAN_ANOMALY": 34.0728, "EPHEMERIS_TYPE": 0, "CLASSIFICATION_TYPE": "U", "NORAD_CAT_ID": 38709, "ELEMENT_SET_NO": 999, "REV_AT_EPOCH": 69750, "BSTAR": 8.2268124e-05, "MEAN_MOTION_DOT": 1.46e-06, "MEAN_MOTION_DDOT": 0}, "tle": {"line1": "1 38709U 12039C   25356.22321829  .00000146  00000+0  82268-4 0  9992", "line2": "2 38709  98.9637 104.8123 0010213 325.9795  34.0728 14.24911668697500"}}, "geometry": {"type": "Point", "coordinates": [-54.460136042596154, 65.2153466797519]}}, {"type": "Feature", "properties": {"norad_id": 38755, "name": "SPOT 6", "group": "resource", "lat": -63.03086920767368, "lon": 77.91451691567117, "alt_km": 705.7869039815923, "timestamp": "2025-12-22T22:44:20.607652+00:00", "meta": {"OBJECT_NAME": "SPOT 6", "OBJECT_ID": "2012-047A", "EPOCH": "2025-12-22T14:48:02.632896", "MEAN_MOTION": 14.58540425, "ECCENTRICITY": 0.00013124, "INCLINATION": 98.1563, "RA_OF_ASC_NODE": 61.2193, "ARG_OF_PERICENTER": 76.7509, "MEAN_ANOMALY": 283.3836, "EPHEMERIS_TYPE": 0, "CLASSIFICATION_TYPE": "U", "NORAD_CAT_ID": 38755, "ELEMENT_SET_NO": 999, "REV_AT_EPOCH": 70731, "BSTAR": 9.1636253e-05, "MEAN_MOTION_DOT": 3.81e-06, "MEAN_MOTION_DDOT": 0}, "tle": {"line1": "1 38755U 12047A   25356.61669714  .00000381  00000+0  91636-4 0  9993", "line2": "2 38755  98.1563  61.2193 0001312  76.7509 283.3836 14.58540425707314"}}, "geometry": {"type": "Point", "coordinates": [77.91451691567117, -63.03086920767368]}}]}